CCSDS_OMM_VERS = 2.0
CREATION_DATE  = 
ORIGINATOR     = 

OBJECT_NAME    = SL-4 R/B
OBJECT_ID      = 2014-021B
CENTER_NAME    = EARTH
REF_FRAME      = TEME
TIME_SYSTEM    = UTC
MEAN_ELEMENT_THEORY = SGP/SGP4

EPOCH          = 2025-12-08T15:34:01.899840
MEAN_MOTION    = 15.36517716
ECCENTRICITY   = .0102169
INCLINATION    = 51.6073
RA_OF_ASC_NODE = 60.4745
ARG_OF_PERICENTER = 131.4435
MEAN_ANOMALY   = 229.5380

EPHEMERIS_TYPE = 0
CLASSIFICATION_TYPE = U
NORAD_CAT_ID   = 39679
ELEMENT_SET_NO = 999
REV_AT_EPOCH   = 64226
BSTAR          = .40816248E-3
MEAN_MOTION_DOT = .17207E-3
MEAN_MOTION_DDOT = 0

CCSDS_OMM_VERS = 2.0
CREATION_DATE  = 
ORIGINATOR     = 

OBJECT_NAME    = ALOS-2
OBJECT_ID      = 2014-029A
CENTER_NAME    = EARTH
REF_FRAME      = TEME
TIME_SYSTEM    = UTC
MEAN_ELEMENT_THEORY = SGP/SGP4

EPOCH          = 2025-12-09T05:25:36.202944
MEAN_MOTION    = 14.79459079
ECCENTRICITY   = .0001441
INCLINATION    = 97.9231
RA_OF_ASC_NODE = 78.1222
ARG_OF_PERICENTER = 100.3702
MEAN_ANOMALY   = 259.7672

EPHEMERIS_TYPE = 0
CLASSIFICATION_TYPE = U
NORAD_CAT_ID   = 39766
ELEMENT_SET_NO = 999
REV_AT_EPOCH   = 62349
BSTAR          = .40378E-3
MEAN_MOTION_DOT = .2964E-4
MEAN_MOTION_DDOT = 0

CCSDS_OMM_VERS = 2.0
CREATION_DATE  = 
ORIGINATOR     = 

OBJECT_NAME    = YAOGAN-29
OBJECT_ID      = 2015-069A
CENTER_NAME    = EARTH
REF_FRAME      = TEME
TIME_SYSTEM    = UTC
MEAN_ELEMENT_THEORY = SGP/SGP4

EPOCH          = 2025-12-09T04:13:12.112896
MEAN_MOTION    = 14.82878292
ECCENTRICITY   = .0000411
INCLINATION    = 98.0218
RA_OF_ASC_NODE = 6.3358
ARG_OF_PERICENTER = 355.7513
MEAN_ANOMALY   = 4.3696

EPHEMERIS_TYPE = 0
CLASSIFICATION_TYPE = U
NORAD_CAT_ID   = 41038
ELEMENT_SET_NO = 999
REV_AT_EPOCH   = 54246
BSTAR          = .15249E-3
MEAN_MOTION_DOT = .1181E-4
MEAN_MOTION_DDOT = 0

CCSDS_OMM_VERS = 2.0
CREATION_DATE  = 
ORIGINATOR     = 

OBJECT_NAME    = ASTRO-H (HITOMI)
OBJECT_ID      = 2016-012A
CENTER_NAME    = EARTH
REF_FRAME      = TEME
TIME_SYSTEM    = UTC
MEAN_ELEMENT_THEORY = SGP/SGP4

EPOCH          = 2025-12-09T01:16:12.136800
MEAN_MOTION    = 15.09316337
ECCENTRICITY   = .0009501
INCLINATION    = 30.9983
RA_OF_ASC_NODE = 221.1410
ARG_OF_PERICENTER = 141.6857
MEAN_ANOMALY   = 218.4457

EPHEMERIS_TYPE = 0
CLASSIFICATION_TYPE = U
NORAD_CAT_ID   = 41337
ELEMENT_SET_NO = 999
REV_AT_EPOCH   = 53852
BSTAR          = .25469E-3
MEAN_MOTION_DOT = .4259E-4
MEAN_MOTION_DDOT = 0

CCSDS_OMM_VERS = 2.0
CREATION_DATE  = 
ORIGINATOR     = 

OBJECT_NAME    = HXMT (HUIYAN)
OBJECT_ID      = 2017-034A
CENTER_NAME    = EARTH
REF_FRAME      = TEME
TIME_SYSTEM    = UTC
MEAN_ELEMENT_THEORY = SGP/SGP4

EPOCH          = 2025-12-08T23:16:43.736160
MEAN_MOTION    = 15.16196129
ECCENTRICITY   = .0032005
INCLINATION    = 43.0125
RA_OF_ASC_NODE = 160.5470
ARG_OF_PERICENTER = 19.1267
MEAN_ANOMALY   = 341.0775

EPHEMERIS_TYPE = 0
CLASSIFICATION_TYPE = U
NORAD_CAT_ID   = 42758
ELEMENT_SET_NO = 999
REV_AT_EPOCH   = 46876
BSTAR          = .24298E-3
MEAN_MOTION_DOT = .46E-4
MEAN_MOTION_DDOT = 0

CCSDS_OMM_VERS = 2.0
CREATION_DATE  = 
ORIGINATOR     = 

OBJECT_NAME    = CZ-2C R/B
OBJECT_ID      = 2018-054D
CENTER_NAME    = EARTH
REF_FRAME      = TEME
TIME_SYSTEM    = UTC
MEAN_ELEMENT_THEORY = SGP/SGP4

EPOCH          = 2025-12-08T22:16:39.395136
MEAN_MOTION    = 15.73090809
ECCENTRICITY   = .0015953
INCLINATION    = 35.1323
RA_OF_ASC_NODE = 206.7289
ARG_OF_PERICENTER = 103.6735
MEAN_ANOMALY   = 256.5775

EPHEMERIS_TYPE = 0
CLASSIFICATION_TYPE = U
NORAD_CAT_ID   = 43521
ELEMENT_SET_NO = 999
REV_AT_EPOCH   = 41445
BSTAR          = .77893E-3
MEAN_MOTION_DOT = .11301E-2
MEAN_MOTION_DDOT = 0

CCSDS_OMM_VERS = 2.0
CREATION_DATE  = 
ORIGINATOR     = 

OBJECT_NAME    = SAOCOM 1A
OBJECT_ID      = 2018-076A
CENTER_NAME    = EARTH
REF_FRAME      = TEME
TIME_SYSTEM    = UTC
MEAN_ELEMENT_THEORY = SGP/SGP4

EPOCH          = 2025-12-09T03:52:20.749728
MEAN_MOTION    = 14.82152886
ECCENTRICITY   = .0001544
INCLINATION    = 97.8841
RA_OF_ASC_NODE = 167.6355
ARG_OF_PERICENTER = 82.3124
MEAN_ANOMALY   = 277.8265

EPHEMERIS_TYPE = 0
CLASSIFICATION_TYPE = U
NORAD_CAT_ID   = 43641
ELEMENT_SET_NO = 999
REV_AT_EPOCH   = 38795
BSTAR          = .15012E-3
MEAN_MOTION_DOT = .1143E-4
MEAN_MOTION_DDOT = 0

CCSDS_OMM_VERS = 2.0
CREATION_DATE  = 
ORIGINATOR     = 

OBJECT_NAME    = H-2A R/B
OBJECT_ID      = 2018-084L
CENTER_NAME    = EARTH
REF_FRAME      = TEME
TIME_SYSTEM    = UTC
MEAN_ELEMENT_THEORY = SGP/SGP4

EPOCH          = 2025-12-09T02:41:59.070336
MEAN_MOTION    = 15.37168656
ECCENTRICITY   = .0027624
INCLINATION    = 98.8779
RA_OF_ASC_NODE = 176.4402
ARG_OF_PERICENTER = 339.0460
MEAN_ANOMALY   = 20.9645

EPHEMERIS_TYPE = 0
CLASSIFICATION_TYPE = U
NORAD_CAT_ID   = 43682
ELEMENT_SET_NO = 999
REV_AT_EPOCH   = 39184
BSTAR          = .59192E-3
MEAN_MOTION_DOT = .21747E-3
MEAN_MOTION_DDOT = 0

CCSDS_OMM_VERS = 2.0
CREATION_DATE  = 
ORIGINATOR     = 

OBJECT_NAME    = SAOCOM 1B
OBJECT_ID      = 2020-059A
CENTER_NAME    = EARTH
REF_FRAME      = TEME
TIME_SYSTEM    = UTC
MEAN_ELEMENT_THEORY = SGP/SGP4

EPOCH          = 2025-12-09T04:37:21.302688
MEAN_MOTION    = 14.82152258
ECCENTRICITY   = .0001274
INCLINATION    = 97.8837
RA_OF_ASC_NODE = 166.7667
ARG_OF_PERICENTER = 82.4859
MEAN_ANOMALY   = 277.6499

EPHEMERIS_TYPE = 0
CLASSIFICATION_TYPE = U
NORAD_CAT_ID   = 46265
ELEMENT_SET_NO = 999
REV_AT_EPOCH   = 28534
BSTAR          = .6474E-4
MEAN_MOTION_DOT = .463E-5
MEAN_MOTION_DDOT = 0

CCSDS_OMM_VERS = 2.0
CREATION_DATE  = 
ORIGINATOR     = 

OBJECT_NAME    = CSS (TIANHE)
OBJECT_ID      = 2021-035A
CENTER_NAME    = EARTH
REF_FRAME      = TEME
TIME_SYSTEM    = UTC
MEAN_ELEMENT_THEORY = SGP/SGP4

EPOCH          = 2025-12-09T04:35:44.544192
MEAN_MOTION    = 15.58939843
ECCENTRICITY   = .0008971
INCLINATION    = 41.4681
RA_OF_ASC_NODE = 38.2458
ARG_OF_PERICENTER = 2.0907
MEAN_ANOMALY   = 357.9967

EPHEMERIS_TYPE = 0
CLASSIFICATION_TYPE = U
NORAD_CAT_ID   = 48274
ELEMENT_SET_NO = 999
REV_AT_EPOCH   = 26347
BSTAR          = .36118E-3
MEAN_MOTION_DOT = .2867E-3
MEAN_MOTION_DDOT = 0

CCSDS_OMM_VERS = 2.0
CREATION_DATE  = 
ORIGINATOR     = 

OBJECT_NAME    = COSMOS 2550
OBJECT_ID      = 2021-056A
CENTER_NAME    = EARTH
REF_FRAME      = TEME
TIME_SYSTEM    = UTC
MEAN_ELEMENT_THEORY = SGP/SGP4

EPOCH          = 2025-12-09T04:54:58.226112
MEAN_MOTION    = 15.33841668
ECCENTRICITY   = .0008297
INCLINATION    = 67.1458
RA_OF_ASC_NODE = 314.6258
ARG_OF_PERICENTER = 269.5162
MEAN_ANOMALY   = 90.5042

EPHEMERIS_TYPE = 0
CLASSIFICATION_TYPE = U
NORAD_CAT_ID   = 48865
ELEMENT_SET_NO = 999
REV_AT_EPOCH   = 24958
BSTAR          = .17777E-3
MEAN_MOTION_DOT = .5663E-4
MEAN_MOTION_DDOT = 0

CCSDS_OMM_VERS = 2.0
CREATION_DATE  = 
ORIGINATOR     = 

OBJECT_NAME    = CZ-2C R/B
OBJECT_ID      = 2022-058K
CENTER_NAME    = EARTH
REF_FRAME      = TEME
TIME_SYSTEM    = UTC
MEAN_ELEMENT_THEORY = SGP/SGP4

EPOCH          = 2025-12-09T04:38:13.877088
MEAN_MOTION    = 15.48256270
ECCENTRICITY   = .004573
INCLINATION    = 50.1909
RA_OF_ASC_NODE = 61.6324
ARG_OF_PERICENTER = 183.7619
MEAN_ANOMALY   = 176.3012

EPHEMERIS_TYPE = 0
CLASSIFICATION_TYPE = U
NORAD_CAT_ID   = 52794
ELEMENT_SET_NO = 999
REV_AT_EPOCH   = 19608
BSTAR          = .56159E-3
MEAN_MOTION_DOT = .31116E-3
MEAN_MOTION_DDOT = 0

